     2              N: GPS NAV DATA                         RINEX VERSION / TYPE
Convert                                 30-Aug-07 11:08     PGM / RUN BY / DATE 
    .46566D-08  .14901D-07  -.5960D-07  -.5960D-07          ION ALPHA           
    .77824D+05  .49152D+05  -.6554D+05  -.3277D+06          ION BETA            
    -.186264514923D-08 -.976996261670D-14   233472      415 DELTA-UTC: A0,A1,T,W
                                                            END OF HEADER       
 3 07 08 29 10 00  0.0  .108145643026D-03  .534328137292D-11  .000000000000D+00 
     .340000000000D+02  .712500000000D+01  .489877548223D-08  .136394111918D+01 
     .504776835442D-06  .971369899344D-02  .141691416502D-04  .515364558792D+04 
     .295200000000D+06 -.124797224998D-06 -.270560203550D+01  .782310962677D-07 
     .926290675702D+00  .887500000000D+02  .753442787985D+00 -.833963309348D-08 
     .251081887140D-09  .100000000000D+01  .144200000000D+04  .000000000000D+00 
     .000000000000D+00  .000000000000D+00 -.419095158577D-08  .290000000000D+03 
     .288000000000D+06                                                          
23 07 08 29 10 00  0.0  .195788685232D-03  .375166564481D-11  .000000000000D+00 
     .106000000000D+03  .700937500000D+02  .417553107049D-08  .159525522721D+01 
     .378862023354D-05  .530860421713D-02  .119749456644D-04  .515362189102D+04 
     .295200000000D+06  .838190317154D-07  .537501093352D+00 -.372529029846D-07 
     .971185339162D+00  .150250000000D+03  .266333237666D+01 -.784068373881D-08 
     .160363822654D-09  .100000000000D+01  .144200000000D+04  .000000000000D+00 
     .000000000000D+00  .000000000000D+00 -.200234353542D-07  .106000000000D+03 
     .288000000000D+06                                                          
31 07 08 29 10 00  0.0  .113053247333D-04 -.125055521494D-11  .000000000000D+00 
     .170000000000D+02  .416562500000D+02  .506378235543D-08 -.234547591471D+00 
     .217743217945D-05  .627480528783D-02  .237300992012D-05  .515354982376D+04 
     .295200000000D+06 -.100582838058D-06  .157917707287D+01 -.279396772385D-07 
     .963458207330D+00  .337125000000D+03 -.132977779808D+01 -.876072206210D-08 
     .168578450541D-09  .100000000000D+01  .144200000000D+04  .000000000000D+00 
     .000000000000D+00  .000000000000D+00 -.130385160446D-07  .170000000000D+02 
     .288000000000D+06                                                          
16 07 08 29 10 00  0.0  .172364525497D-03  .238742359215D-11  .000000000000D+00 
     .187000000000D+03 -.119875000000D+03  .445661420730D-08 -.229155991091D+01 
    -.615976750851D-05  .407157931477D-02  .895187258720D-05  .515372065926D+04 
     .295200000000D+06  .372529029846D-08  .264626967699D+01  .614672899246D-07 
     .964328086216D+00  .209750000000D+03 -.608562520455D+00 -.818034074403D-08 
    -.573238163385D-09  .100000000000D+01  .144200000000D+04  .000000000000D+00 
     .000000000000D+00  .000000000000D+00 -.977888703346D-08  .443000000000D+03 
     .288000000000D+06                                                          
27 07 08 29 10 00  0.0  .131744425744D-03  .227373675443D-11  .000000000000D+00 
     .430000000000D+02  .510625000000D+02  .470269588616D-08 -.193076260038D+01 
     .283867120743D-05  .205806383165D-01  .203773379326D-05  .515367313004D+04 
     .295200000000D+06  .333413481712D-06  .152224789962D+01  .134110450745D-06 
     .964944437009D+00  .338375000000D+03 -.179088931334D+01 -.821105630917D-08 
     .249296098469D-09  .100000000000D+01  .144200000000D+04  .000000000000D+00 
     .100000000000D+01  .000000000000D+00 -.419095158577D-08  .811000000000D+03 
     .288000000000D+06                                                          
21 07 08 29 10 00  0.0  .785188749433D-04 -.113686837722D-12  .000000000000D+00 
     .100000000000D+02  .262187500000D+02  .562451999812D-08 -.923569636371D+00 
     .141561031342D-05  .129648038419D-01  .271387398243D-05  .515360268974D+04 
     .295200000000D+06  .290572643280D-06 -.152781403812D+01 -.949949026108D-07 
     .938053506974D+00  .309906250000D+03 -.280139941483D+01 -.888251284946D-08 
     .313227332890D-09  .100000000000D+01  .144200000000D+04  .000000000000D+00 
     .000000000000D+00  .000000000000D+00 -.121071934700D-07  .266000000000D+03 
     .288000000000D+06                                                          
19 07 08 29 10 00  0.0  .615860335529D-04  .261479726760D-11  .000000000000D+00 
     .103000000000D+03  .430937500000D+02  .427660670926D-08  .235753707887D+01 
     .231899321079D-05  .416518968996D-02  .127442181110D-04  .515359903145D+04 
     .295200000000D+06  .856816768646D-07 -.253955973339D+01  .242143869400D-07 
     .957829239421D+00  .129875000000D+03 -.806818369372D+00 -.788461414011D-08 
     .457161899771D-09  .100000000000D+01  .144200000000D+04  .000000000000D+00 
     .000000000000D+00  .000000000000D+00 -.149011611938D-07  .359000000000D+03 
     .288000000000D+06                                                          
25 07 08 29 10 00  0.0  .423069577664D-03  .118234311230D-10  .000000000000D+00 
     .161000000000D+03  .611875000000D+02  .486805991709D-08 -.208661297898D+01 
     .324100255966D-05  .116319629597D-01  .271946191788D-05  .515370295906D+04 
     .295200000000D+06  .651925802231D-07  .148860797111D+01  .247731804848D-06 
     .960378173754D+00  .327375000000D+03 -.129747599635D+01 -.838820654533D-08 
     .179650340301D-09  .100000000000D+01  .144200000000D+04  .000000000000D+00 
     .100000000000D+01  .000000000000D+00 -.745058059692D-08  .417000000000D+03 
     .288000000000D+06                                                          
13 07 08 29 09 59 44.0  .202157068998D-03  .306954461848D-11  .000000000000D+00 
     .203000000000D+03  .708750000000D+02  .358586365133D-08  .237195390979D+01 
     .362098217010D-05  .345348531846D-02  .121369957924D-04  .515375934219D+04 
     .295184000000D+06 -.130385160446D-07  .574642102276D+00 -.968575477600D-07 
     .995044744522D+00  .159625000000D+03  .141097112223D+01 -.750352683773D-08 
     .236795577772D-09  .100000000000D+01  .144200000000D+04  .000000000000D+00 
     .000000000000D+00  .000000000000D+00 -.107102096081D-07  .203000000000D+03 
     .288000000000D+06                                                          
11 07 08 29 10 00  0.0  .229077413678D-04  .568434188608D-12  .000000000000D+00 
     .430000000000D+02  .593125000000D+02  .664063375191D-08 -.207397874154D+00 
     .316835939884D-05  .701750954613D-02  .385195016861D-05  .515371358681D+04 
     .295200000000D+06  .335276126862D-07 -.173235026165D+01  .670552253723D-07 
     .892687530807D+00  .267718750000D+03  .499691264615D+00 -.938646241241D-08 
     .431089385175D-09  .100000000000D+01  .144200000000D+04  .000000000000D+00 
     .000000000000D+00  .000000000000D+00 -.116415321827D-07  .430000000000D+02 
     .288540000000D+06                                                          
18 07 08 29 09 59 44.0 -.238580163568D-03  .159161572810D-11  .000000000000D+00 
     .104000000000D+03 -.783125000000D+02  .477877048354D-08 -.225305893530D+01 
    -.418722629547D-05  .877189054154D-02  .102669000626D-04  .515362046242D+04 
     .295184000000D+06  .173225998878D-06 -.470600728992D+00 -.119209289551D-06 
     .951917059349D+00  .174906250000D+03 -.256300917937D+01 -.816855453880D-08 
    -.513592821774D-09  .100000000000D+01  .144200000000D+04  .000000000000D+00 
     .000000000000D+00  .000000000000D+00 -.107102096081D-07  .104000000000D+03 
     .288780000000D+06                                                          
22 07 08 29 10 00  0.0  .196037348360D-03  .136424205266D-11  .000000000000D+00 
     .182000000000D+03 -.796250000000D+02  .485805950054D-08  .264925089923D+01 
    -.413879752159D-05  .497039791662D-02  .102017074823D-04  .515367430115D+04 
     .295200000000D+06  .875443220139D-07 -.463517935040D+00 -.540167093277D-07 
     .949526361550D+00  .178125000000D+03 -.175807124782D+01 -.815426822943D-08 
    -.622525930704D-09  .100000000000D+01  .144200000000D+04  .000000000000D+00 
     .200000000000D+01  .000000000000D+00 -.181607902050D-07  .438000000000D+03 
     .289500000000D+06                                                          
 8 07 08 29 10 00  0.0 -.120723154396D-03 -.147792889038D-11  .000000000000D+00 
     .240000000000D+02  .251875000000D+02  .455447542647D-08 -.673835805383D+00 
     .121816992760D-05  .101065511117D-01  .251829624176D-05  .515367798424D+04 
     .295200000000D+06  .204890966415D-07  .163150315097D+01 -.154599547386D-06 
     .979123046348D+00  .340718750000D+03  .278716350592D+01 -.844428030960D-08 
     .129291099779D-09  .100000000000D+01  .144200000000D+04  .000000000000D+00 
     .200000000000D+01  .000000000000D+00 -.372529029846D-08  .280000000000D+03 
     .289950000000D+06                                                          
 8 07 08 29 09 59 44.0 -.120718963444D-03 -.147792889038D-11  .000000000000D+00 
     .450000000000D+02  .251875000000D+02  .455447542647D-08 -.676169326492D+00 
     .121816992760D-05  .101065495983D-01  .251829624176D-05  .515367798615D+04 
     .295184000000D+06  .204890966415D-07  .163150327679D+01 -.154599547386D-06 
     .979123052200D+00  .340718750000D+03  .278716326307D+01 -.844428030960D-08 
     .129291099779D-09  .100000000000D+01  .144200000000D+04  .000000000000D+00 
     .000000000000D+00  .000000000000D+00 -.372529029846D-08  .450000000000D+02 
     .291000000000D+06                                                          
